Results
*******************************************************************************
 Revised: Aug 07, 2025                Hati / (Saturn)                       643

 Newly discovered irregular Saturnian satellite
*******************************************************************************


*******************************************************************************
Ephemeris / API_USER Tue Jan  6 23:12:19 2026 Pasadena, USA      / Horizons    
*******************************************************************************
Target body name: Hati (643)                      {source: sat456_merged_DE440}
Center body name: Earth (399)                     {source: sat456_merged_DE440}
Center-site name: GEOCENTRIC
*******************************************************************************
Start time      : A.D. 2020-Jan-01 00:00:00.0000 UT      
Stop  time      : A.D. 2020-Dec-20 00:00:00.0000 UT      
Step-size       : 1440 minutes
*******************************************************************************
Target pole/equ : undefined
Target radii    : undefined                                                    
Center geodetic : 0.0, 0.0, -6378.137             {E-lon(deg),Lat(deg),Alt(km)}
Center cylindric: 0.0, 0.0, 0.0                   {E-lon(deg),Dxy(km),Dz(km)}
Center pole/equ : ITRF93                          {East-longitude positive}
Center radii    : 6378.137, 6378.137, 6356.752 km {Equator_a, b, pole_c}       
Target primary  : Saturn
Vis. interferer : MOON (R_eq= 1737.400) km        {source: sat456_merged_DE440}
Rel. light bend : Sun                             {source: sat456_merged_DE440}
Rel. lght bnd GM: 1.3271E+11 km^3/s^2                                          
Atmos refraction: NO (AIRLESS)
RA format       : HMS
Time format     : CAL 
Calendar mode   : Mixed Julian/Gregorian
EOP file        : eop.260106.p260404                                           
EOP coverage    : DATA-BASED 1962-JAN-20 TO 2026-JAN-06. PREDICTS-> 2026-APR-03
Units conversion: 1 au= 149597870.700 km, c= 299792.458 km/s, 1 day= 86400.0 s 
Table cut-offs 1: Elevation (-90.0deg=NO ),Airmass (>38.000=NO), Daylight (NO )
Table cut-offs 2: Solar elongation (  0.0,180.0=NO ),Local Hour Angle( 0.0=NO )
Table cut-offs 3: RA/DEC angular rate (     0.0=NO )                           
**************************************************************************************************************************
 Date__(UT)__HR:MN     R.A._____(ICRF)_____DEC    APmag   S-brt             delta      deldot     S-O-T /r     S-T-O  Cnst
**************************************************************************************************************************
$$SOE
 2020-Jun-26 00:00     20 12 09.87 -20 27 23.3     n.a.    n.a.  8.96368665854691 -11.8297819  153.8492 /L    2.6034   Cap
 2020-Jun-27 00:00     20 11 54.71 -20 28 17.5     n.a.    n.a.  8.95698873715899 -11.3639945  154.8638 /L    2.5092   Cap
 2020-Jun-28 00:00     20 11 39.32 -20 29 12.3     n.a.    n.a.  8.95056089978588 -10.8945483  155.8790 /L    2.4142   Cap
 2020-Jun-29 00:00     20 11 23.72 -20 30 07.5     n.a.    n.a.  8.94440517886481 -10.4217169  156.8950 /L    2.3184   Cap
 2020-Jun-30 00:00     20 11 07.92 -20 31 03.3     n.a.    n.a.  8.93852346003082  -9.9457332  157.9116 /L    2.2218   Cap
 2020-Jul-01 00:00     20 10 51.92 -20 31 59.5     n.a.    n.a.  8.93291750864003  -9.4667796  158.9288 /L    2.1245   Cap
 2020-Jul-02 00:00     20 10 35.72 -20 32 56.1     n.a.    n.a.  8.92758900076112  -8.9849824  159.9466 /L    2.0264   Cap
 2020-Jul-03 00:00     20 10 19.35 -20 33 53.1     n.a.    n.a.  8.92253955568782  -8.5004126  160.9651 /L    1.9276   Cap
 2020-Jul-04 00:00     20 10 02.80 -20 34 50.5     n.a.    n.a.  8.91777076589916  -8.0130941  161.9841 /L    1.8282   Cap
 2020-Jul-05 00:00     20 09 46.09 -20 35 48.2     n.a.    n.a.  8.91328421999869  -7.5230195  163.0036 /L    1.7281   Cap
 2020-Jul-06 00:00     20 09 29.22 -20 36 46.2     n.a.    n.a.  8.90908151512974  -7.0301701  164.0238 /L    1.6275   Cap
 2020-Jul-07 00:00     20 09 12.20 -20 37 44.5     n.a.    n.a.  8.90516425772766  -6.5345355  165.0444 /L    1.5263   Cap
 2020-Jul-08 00:00     20 08 55.04 -20 38 43.0     n.a.    n.a.  8.90153405422944  -6.0361279  166.0656 /L    1.4245   Cap
 2020-Jul-09 00:00     20 08 37.74 -20 39 41.7     n.a.    n.a.  8.89819249528405  -5.5349903  167.0873 /L    1.3223   Cap
 2020-Jul-10 00:00     20 08 20.32 -20 40 40.7     n.a.    n.a.  8.89514113756769  -5.0311972  168.1094 /L    1.2196   Cap
 2020-Jul-11 00:00     20 08 02.79 -20 41 39.7     n.a.    n.a.  8.89238148653198  -4.5248506  169.1319 /L    1.1165   Cap
 2020-Jul-12 00:00     20 07 45.14 -20 42 38.9     n.a.    n.a.  8.88991498201243  -4.0160747  170.1547 /L    1.0130   Cap
 2020-Jul-13 00:00     20 07 27.40 -20 43 38.2     n.a.    n.a.  8.88774298723026  -3.5050098  171.1777 /L    0.9092   Cap
 2020-Jul-14 00:00     20 07 09.56 -20 44 37.6     n.a.    n.a.  8.88586678066880  -2.9918085  172.2008 /L    0.8051   Sgr
 2020-Jul-15 00:00     20 06 51.65 -20 45 36.9     n.a.    n.a.  8.88428754964472  -2.4766339  173.2238 /L    0.7008   Sgr
 2020-Jul-16 00:00     20 06 33.67 -20 46 36.3     n.a.    n.a.  8.88300638403608  -1.9596607  174.2462 /L    0.5964   Sgr
 2020-Jul-17 00:00     20 06 15.62 -20 47 35.7     n.a.    n.a.  8.88202426849397  -1.4410795  175.2675 /L    0.4918   Sgr
 2020-Jul-18 00:00     20 05 57.52 -20 48 35.0     n.a.    n.a.  8.88134207156775  -0.9211030  176.2864 /L    0.3874   Sgr
 2020-Jul-19 00:00     20 05 39.38 -20 49 34.2     n.a.    n.a.  8.88096053064131  -0.3999740  177.2997 /L    0.2834   Sgr
 2020-Jul-20 00:00     20 05 21.21 -20 50 33.3     n.a.    n.a.  8.88088023257871   0.1220281  178.2967 /L    0.1809   Sgr
 2020-Jul-21 00:00     20 05 03.02 -20 51 32.3     n.a.    n.a.  8.88110159155371   0.6445849  179.2119 /L    0.0858   Sgr
 2020-Jul-22 00:00     20 04 44.81 -20 52 31.0     n.a.    n.a.  8.88162482738729   1.1673433  179.3272 /T    0.0653   Sgr
 2020-Jul-23 00:00     20 04 26.60 -20 53 29.6     n.a.    n.a.  8.88244994908293   1.6899291  178.4518 /T    0.1530   Sgr
 2020-Jul-24 00:00     20 04 08.40 -20 54 27.9     n.a.    n.a.  8.88357674824145   2.2119675  177.4595 /T    0.2545   Sgr
 2020-Jul-25 00:00     20 03 50.22 -20 55 26.0     n.a.    n.a.  8.88500480520293   2.7331055  176.4470 /T    0.3581   Sgr
 2020-Jul-26 00:00     20 03 32.07 -20 56 23.7     n.a.    n.a.  8.88673350768749   3.2530318  175.4276 /T    0.4624   Sgr
 2020-Jul-27 00:00     20 03 13.96 -20 57 21.1     n.a.    n.a.  8.88876207887004   3.7714892  174.4052 /T    0.5668   Sgr
 2020-Jul-28 00:00     20 02 55.90 -20 58 18.2     n.a.    n.a.  8.89108961032367   4.2882793  173.3812 /T    0.6711   Sgr
 2020-Jul-29 00:00     20 02 37.89 -20 59 14.9     n.a.    n.a.  8.89371509542235   4.8032597  172.3564 /T    0.7753   Sgr
 2020-Jul-30 00:00     20 02 19.95 -21 00 11.2     n.a.    n.a.  8.89663745990861   5.3163370  171.3310 /T    0.8792   Sgr
 2020-Jul-31 00:00     20 02 02.09 -21 01 07.0     n.a.    n.a.  8.89985558751897   5.8274574  170.3055 /T    0.9829   Sgr
 2020-Aug-01 00:00     20 01 44.31 -21 02 02.4     n.a.    n.a.  8.90336833933621   6.3365942  169.2797 /T    1.0862   Sgr
 2020-Aug-02 00:00     20 01 26.63 -21 02 57.3     n.a.    n.a.  8.90717456597278   6.8437355  168.2540 /T    1.1892   Sgr
 2020-Aug-03 00:00     20 01 09.05 -21 03 51.7     n.a.    n.a.  8.91127311213179   7.3488707  167.2283 /T    1.2917   Sgr
 2020-Aug-04 00:00     20 00 51.57 -21 04 45.6     n.a.    n.a.  8.91566281380469   7.8519785  166.2026 /T    1.3937   Sgr
 2020-Aug-05 00:00     20 00 34.22 -21 05 38.9     n.a.    n.a.  8.92034248929885   8.3530176  165.1771 /T    1.4953   Sgr
 2020-Aug-06 00:00     20 00 17.00 -21 06 31.7     n.a.    n.a.  8.92531092612770   8.8519222  164.1518 /T    1.5963   Sgr
 2020-Aug-07 00:00     19 59 59.91 -21 07 23.9     n.a.    n.a.  8.93056686618946   9.3486003  163.1266 /T    1.6968   Sgr
 2020-Aug-08 00:00     19 59 42.97 -21 08 15.4     n.a.    n.a.  8.93610899146000   9.8429371  162.1016 /T    1.7966   Sgr
 2020-Aug-09 00:00     19 59 26.18 -21 09 06.3     n.a.    n.a.  8.94193591174809  10.3347983  161.0768 /T    1.8959   Sgr
 2020-Aug-10 00:00     19 59 09.55 -21 09 56.5     n.a.    n.a.  8.94804615517118  10.8240359  160.0523 /T    1.9944   Sgr
 2020-Aug-11 00:00     19 58 53.10 -21 10 46.1     n.a.    n.a.  8.95443816119018  11.3104916  159.0281 /T    2.0922   Sgr
 2020-Aug-12 00:00     19 58 36.82 -21 11 34.9     n.a.    n.a.  8.96111027534440  11.7939986  158.0042 /T    2.1893   Sgr
 2020-Aug-13 00:00     19 58 20.74 -21 12 23.0     n.a.    n.a.  8.96806074436692  12.2743810  156.9806 /T    2.2856   Sgr
 2020-Aug-14 00:00     19 58 04.85 -21 13 10.4     n.a.    n.a.  8.97528771010926  12.7514508  155.9574 /T    2.3812   Sgr
 2020-Aug-15 00:00     19 57 49.16 -21 13 57.1     n.a.    n.a.  8.98278920060277  13.2250006  154.9346 /T    2.4758   Sgr
 2020-Aug-16 00:00     19 57 33.69 -21 14 42.9     n.a.    n.a.  8.99056311687401  13.6947965  153.9122 /T    2.5696   Sgr
 2020-Aug-17 00:00     19 57 18.45 -21 15 28.0     n.a.    n.a.  8.99860721502277  14.1605695  152.8903 /T    2.6625   Sgr
 2020-Aug-18 00:00     19 57 03.43 -21 16 12.2     n.a.    n.a.  9.00691908480914  14.6220126  151.8689 /T    2.7544   Sgr
 2020-Aug-19 00:00     19 56 48.65 -21 16 55.6     n.a.    n.a.  9.01549612847712  15.0787853  150.8481 /T    2.8454   Sgr
 2020-Aug-20 00:00     19 56 34.12 -21 17 38.1     n.a.    n.a.  9.02433554591188  15.5305311  149.8278 /T    2.9353   Sgr
 2020-Aug-21 00:00     19 56 19.85 -21 18 19.8     n.a.    n.a.  9.03343433289340  15.9769049  148.8083 /T    3.0242   Sgr
 2020-Aug-22 00:00     19 56 05.84 -21 19 00.6     n.a.    n.a.  9.04278929677251  16.4176043  147.7894 /T    3.1120   Sgr
 2020-Aug-23 00:00     19 55 52.11 -21 19 40.5     n.a.    n.a.  9.05239708869300  16.8523938  146.7713 /T    3.1987   Sgr
